[{"OBJECT_NAME":"ONEWEB-0438","OBJECT_ID":"2022-012N","EPOCH":"2026-04-22T06:50:50.216352","MEAN_MOTION":13.10368405,"ECCENTRICITY":0.0001827,"INCLINATION":87.884,"RA_OF_ASC_NODE":47.4039,"ARG_OF_PERICENTER":84.5568,"MEAN_ANOMALY":275.5768,"EPHEMERIS_TYPE":0,"CLASSIFICATION_TYPE":"U","NORAD_CAT_ID":51634,"ELEMENT_SET_NO":999,"REV_AT_EPOCH":20202,"BSTAR":0.00032366000000000003,"MEAN_MOTION_DOT":1.26e-06,"MEAN_MOTION_DDOT":0.0},{"OBJECT_NAME":"ONEWEB-0439","OBJECT_ID":"2022-012P","EPOCH":"2026-04-22T05:05:39.995808","MEAN_MOTION":13.10369585,"ECCENTRICITY":0.0001966,"INCLINATION":87.8837,"RA_OF_ASC_NODE":47.4067,"ARG_OF_PERICENTER":81.9131,"MEAN_ANOMALY":278.2219,"EPHEMERIS_TYPE":0,"CLASSIFICATION_TYPE":"U","NORAD_CAT_ID":51635,"ELEMENT_SET_NO":999,"REV_AT_EPOCH":20199,"BSTAR":-4.694900000000001e-05,"MEAN_MOTION_DOT":-4e-08,"MEAN_MOTION_DDOT":0.0},{"OBJECT_NAME":"ONEWEB-0442","OBJECT_ID":"2022-012Q","EPOCH":"2026-04-22T03:55:45.863328","MEAN_MOTION":13.17647702,"ECCENTRICITY":0.0001514,"INCLINATION":87.9182,"RA_OF_ASC_NODE":17.0081,"ARG_OF_PERICENTER":96.9078,"MEAN_ANOMALY":263.2225,"EPHEMERIS_TYPE":0,"CLASSIFICATION_TYPE":"U","NORAD_CAT_ID":51636,"ELEMENT_SET_NO":999,"REV_AT_EPOCH":20629,"BSTAR":0.00033021,"MEAN_MOTION_DOT":1.41e-06,"MEAN_MOTION_DDOT":0.0},{"OBJECT_NAME":"ONEWEB-0443","OBJECT_ID":"2022-012R","EPOCH":"2026-04-22T06:13:03.422496","MEAN_MOTION":13.17647992,"ECCENTRICITY":0.0002095,"INCLINATION":87.9186,"RA_OF_ASC_NODE":16.9914,"ARG_OF_PERICENTER":87.3775,"MEAN_ANOMALY":272.7597,"EPHEMERIS_TYPE":0,"CLASSIFICATION_TYPE":"U","NORAD_CAT_ID":51637,"ELEMENT_SET_NO":999,"REV_AT_EPOCH":20635,"BSTAR":-0.00011148,"MEAN_MOTION_DOT":-3e-07,"MEAN_MOTION_DDOT":0.0},{"OBJECT_NAME":"ONEWEB-0444","OBJECT_ID":"2022-012S","EPOCH":"2026-04-22T01:11:26.945952","MEAN_MOTION":13.10361625,"ECCENTRICITY":0.0001989,"INCLINATION":87.8842,"RA_OF_ASC_NODE":47.4377,"ARG_OF_PERICENTER":83.1037,"MEAN_ANOMALY":277.0317,"EPHEMERIS_TYPE":0,"CLASSIFICATION_TYPE":"U","NORAD_CAT_ID":51638,"ELEMENT_SET_NO":999,"REV_AT_EPOCH":20198,"BSTAR":0.0063367,"MEAN_MOTION_DOT":2.225e-05,"MEAN_MOTION_DDOT":0.0},{"OBJECT_NAME":"ONEWEB-0445","OBJECT_ID":"2022-012T","EPOCH":"2026-04-22T05:22:23.902464","MEAN_MOTION":13.10373483,"ECCENTRICITY":0.0001729,"INCLINATION":87.8859,"RA_OF_ASC_NODE":47.3865,"ARG_OF_PERICENTER":72.8721,"MEAN_ANOMALY":287.2595,"EPHEMERIS_TYPE":0,"CLASSIFICATION_TYPE":"U","NORAD_CAT_ID":51639,"ELEMENT_SET_NO":999,"REV_AT_EPOCH":20201,"BSTAR":-0.0014299,"MEAN_MOTION_DOT":-4.86e-06,"MEAN_MOTION_DDOT":0.0},{"OBJECT_NAME":"ONEWEB-0446","OBJECT_ID":"2022-012U","EPOCH":"2026-04-22T01:09:02.264832","MEAN_MOTION":13.10370005,"ECCENTRICITY":0.0001804,"INCLINATION":87.8848,"RA_OF_ASC_NODE":47.4546,"ARG_OF_PERICENTER":77.1515,"MEAN_ANOMALY":282.9813,"EPHEMERIS_TYPE":0,"CLASSIFICATION_TYPE":"U","NORAD_CAT_ID":51640,"ELEMENT_SET_NO":999,"REV_AT_EPOCH":20197,"BSTAR":0.0011592,"MEAN_MOTION_DOT":4.17e-06,"MEAN_MOTION_DDOT":0.0},{"OBJECT_NAME":"ONEWEB-0448","OBJECT_ID":"2022-012V","EPOCH":"2026-04-22T04:56:06.827712","MEAN_MOTION":13.10371879,"ECCENTRICITY":0.0002167,"INCLINATION":87.8838,"RA_OF_ASC_NODE":47.4207,"ARG_OF_PERICENTER":87.2838,"MEAN_ANOMALY":272.8537,"EPHEMERIS_TYPE":0,"CLASSIFICATION_TYPE":"U","NORAD_CAT_ID":51641,"ELEMENT_SET_NO":999,"REV_AT_EPOCH":20196,"BSTAR":0.0017468,"MEAN_MOTION_DOT":6.22e-06,"MEAN_MOTION_DDOT":0.0},{"OBJECT_NAME":"ONEWEB-0449","OBJECT_ID":"2022-012W","EPOCH":"2026-04-22T05:03:16.208064","MEAN_MOTION":13.10368505,"ECCENTRICITY":0.0001807,"INCLINATION":87.8848,"RA_OF_ASC_NODE":47.4023,"ARG_OF_PERICENTER":93.9368,"MEAN_ANOMALY":266.1966,"EPHEMERIS_TYPE":0,"CLASSIFICATION_TYPE":"U","NORAD_CAT_ID":51642,"ELEMENT_SET_NO":999,"REV_AT_EPOCH":20197,"BSTAR":1.4014e-05,"MEAN_MOTION_DOT":1.8e-07,"MEAN_MOTION_DDOT":0.0},{"OBJECT_NAME":"ONEWEB-0451","OBJECT_ID":"2022-012X","EPOCH":"2026-04-22T04:01:51.426048","MEAN_MOTION":13.17649358,"ECCENTRICITY":0.000176,"INCLINATION":87.9193,"RA_OF_ASC_NODE":16.9672,"ARG_OF_PERICENTER":86.8981,"MEAN_ANOMALY":273.2352,"EPHEMERIS_TYPE":0,"CLASSIFICATION_TYPE":"U","NORAD_CAT_ID":51643,"ELEMENT_SET_NO":999,"REV_AT_EPOCH":20628,"BSTAR":9.902800000000001e-05,"MEAN_MOTION_DOT":5.1e-07,"MEAN_MOTION_DDOT":0.0},{"OBJECT_NAME":"ONEWEB-0452","OBJECT_ID":"2022-012Y","EPOCH":"2026-04-22T03:59:24.184896","MEAN_MOTION":13.17649826,"ECCENTRICITY":0.000197,"INCLINATION":87.9184,"RA_OF_ASC_NODE":17.0097,"ARG_OF_PERICENTER":88.1525,"MEAN_ANOMALY":271.9832,"EPHEMERIS_TYPE":0,"CLASSIFICATION_TYPE":"U","NORAD_CAT_ID":51644,"ELEMENT_SET_NO":999,"REV_AT_EPOCH":20629,"BSTAR":0.00037845,"MEAN_MOTION_DOT":1.6e-06,"MEAN_MOTION_DDOT":0.0},{"OBJECT_NAME":"ONEWEB-0456","OBJECT_ID":"2022-012AA","EPOCH":"2026-04-22T07:07:33.683232","MEAN_MOTION":13.10370593,"ECCENTRICITY":0.0002025,"INCLINATION":87.8853,"RA_OF_ASC_NODE":47.3679,"ARG_OF_PERICENTER":77.6751,"MEAN_ANOMALY":282.4603,"EPHEMERIS_TYPE":0,"CLASSIFICATION_TYPE":"U","NORAD_CAT_ID":51646,"ELEMENT_SET_NO":999,"REV_AT_EPOCH":20202,"BSTAR":-0.0012755,"MEAN_MOTION_DOT":-4.33e-06,"MEAN_MOTION_DDOT":0.0},{"OBJECT_NAME":"ONEWEB-0457","OBJECT_ID":"2022-012AB","EPOCH":"2026-04-22T01:04:15.496320","MEAN_MOTION":13.10370389,"ECCENTRICITY":0.0001448,"INCLINATION":87.8842,"RA_OF_ASC_NODE":47.4427,"ARG_OF_PERICENTER":78.2466,"MEAN_ANOMALY":281.8824,"EPHEMERIS_TYPE":0,"CLASSIFICATION_TYPE":"U","NORAD_CAT_ID":51647,"ELEMENT_SET_NO":999,"REV_AT_EPOCH":20199,"BSTAR":0.0015404000000000001,"MEAN_MOTION_DOT":5.5e-06,"MEAN_MOTION_DDOT":0.0},{"OBJECT_NAME":"ONEWEB-0458","OBJECT_ID":"2022-012AC","EPOCH":"2026-04-22T05:15:13.148352","MEAN_MOTION":13.10369996,"ECCENTRICITY":0.0001925,"INCLINATION":87.8846,"RA_OF_ASC_NODE":47.3914,"ARG_OF_PERICENTER":84.2836,"MEAN_ANOMALY":275.8511,"EPHEMERIS_TYPE":0,"CLASSIFICATION_TYPE":"U","NORAD_CAT_ID":51648,"ELEMENT_SET_NO":999,"REV_AT_EPOCH":20197,"BSTAR":-0.0010739,"MEAN_MOTION_DOT":-3.62e-06,"MEAN_MOTION_DDOT":0.0},{"OBJECT_NAME":"ONEWEB-0461","OBJECT_ID":"2022-012AD","EPOCH":"2026-04-22T06:20:20.662656","MEAN_MOTION":13.17647603,"ECCENTRICITY":0.0001716,"INCLINATION":87.9194,"RA_OF_ASC_NODE":16.9628,"ARG_OF_PERICENTER":78.8056,"MEAN_ANOMALY":281.3269,"EPHEMERIS_TYPE":0,"CLASSIFICATION_TYPE":"U","NORAD_CAT_ID":51649,"ELEMENT_SET_NO":999,"REV_AT_EPOCH":20652,"BSTAR":0.00020175000000000003,"MEAN_MOTION_DOT":9.1e-07,"MEAN_MOTION_DDOT":0.0},{"OBJECT_NAME":"ONEWEB-0463","OBJECT_ID":"2022-012AE","EPOCH":"2026-04-22T04:04:16.915872","MEAN_MOTION":13.17648196,"ECCENTRICITY":0.0001708,"INCLINATION":87.918,"RA_OF_ASC_NODE":17.0096,"ARG_OF_PERICENTER":78.0754,"MEAN_ANOMALY":282.0569,"EPHEMERIS_TYPE":0,"CLASSIFICATION_TYPE":"U","NORAD_CAT_ID":51650,"ELEMENT_SET_NO":999,"REV_AT_EPOCH":20629,"BSTAR":0.00026193,"MEAN_MOTION_DOT":1.15e-06,"MEAN_MOTION_DDOT":0.0}]