ONEWEB-0438             
1 51634U 22012N   26112.28530343  .00000126  00000+0  32366-3 0  9997
2 51634  87.8840  47.4039 0001827  84.5568 275.5768 13.10368405202024
ONEWEB-0439             
1 51635U 22012P   26112.21226847 -.00000004  00000+0 -46949-4 0  9992
2 51635  87.8837  47.4067 0001966  81.9131 278.2219 13.10369585201999
ONEWEB-0442             
1 51636U 22012Q   26112.16372527  .00000141  00000+0  33021-3 0  9990
2 51636  87.9182  17.0081 0001514  96.9078 263.2225 13.17647702206294
ONEWEB-0443             
1 51637U 22012R   26112.25906739 -.00000030  00000+0 -11148-3 0  9994
2 51637  87.9186  16.9914 0002095  87.3775 272.7597 13.17647992206350
ONEWEB-0444             
1 51638U 22012S   26112.04961743  .00002225  00000+0  63367-2 0  9993
2 51638  87.8842  47.4377 0001989  83.1037 277.0317 13.10361625201988
ONEWEB-0445             
1 51639U 22012T   26112.22388776 -.00000486  00000+0 -14299-2 0  9992
2 51639  87.8859  47.3865 0001729  72.8721 287.2595 13.10373483202016
ONEWEB-0446             
1 51640U 22012U   26112.04794288  .00000417  00000+0  11592-2 0  9998
2 51640  87.8848  47.4546 0001804  77.1515 282.9813 13.10370005201972
ONEWEB-0448             
1 51641U 22012V   26112.20563458  .00000622  00000+0  17468-2 0  9996
2 51641  87.8838  47.4207 0002167  87.2838 272.8537 13.10371879201969
ONEWEB-0449             
1 51642U 22012W   26112.21060426  .00000018  00000+0  14014-4 0  9990
2 51642  87.8848  47.4023 0001807  93.9368 266.1966 13.10368505201974
ONEWEB-0451             
1 51643U 22012X   26112.16795632  .00000051  00000+0  99028-4 0  9994
2 51643  87.9193  16.9672 0001760  86.8981 273.2352 13.17649358206282
ONEWEB-0452             
1 51644U 22012Y   26112.16625214  .00000160  00000+0  37845-3 0  9992
2 51644  87.9184  17.0097 0001970  88.1525 271.9832 13.17649826206297
ONEWEB-0456             
1 51646U 22012AA  26112.29691763 -.00000433  00000+0 -12755-2 0  9997
2 51646  87.8853  47.3679 0002025  77.6751 282.4603 13.10370593202024
ONEWEB-0457             
1 51647U 22012AB  26112.04462380  .00000550  00000+0  15404-2 0  9994
2 51647  87.8842  47.4427 0001448  78.2466 281.8824 13.10370389201999
ONEWEB-0458             
1 51648U 22012AC  26112.21890218 -.00000362  00000+0 -10739-2 0  9998
2 51648  87.8846  47.3914 0001925  84.2836 275.8511 13.10369996201978
ONEWEB-0461             
1 51649U 22012AD  26112.26412804  .00000091  00000+0  20175-3 0  9998
2 51649  87.9194  16.9628 0001716  78.8056 281.3269 13.17647603206520
ONEWEB-0463             
1 51650U 22012AE  26112.16964023  .00000115  00000+0  26193-3 0  9997
2 51650  87.9180  17.0096 0001708  78.0754 282.0569 13.17648196206299
